{"type": "FeatureCollection", "features": [{"type": "Feature", "properties": {"norad_id": 28890, "name": "BEIJING 1", "group": "dmc", "lat": -74.59346519665837, "lon": -84.35676070188177, "alt_km": 699.6862955332554, "timestamp": "2025-12-25T22:42:16.663160+00:00", "meta": {"OBJECT_NAME": "BEIJING 1", "OBJECT_ID": "2005-043A", "EPOCH": "2025-12-25T18:15:11.310912", "MEAN_MOTION": 14.63378928, "ECCENTRICITY": 0.0015846, "INCLINATION": 98.2665, "RA_OF_ASC_NODE": 127.2992, "ARG_OF_PERICENTER": 103.051, "MEAN_ANOMALY": 257.2461, "EPHEMERIS_TYPE": 0, "CLASSIFICATION_TYPE": "U", "NORAD_CAT_ID": 28890, "ELEMENT_SET_NO": 999, "REV_AT_EPOCH": 7528, "BSTAR": 0.00015705, "MEAN_MOTION_DOT": 7.64e-06, "MEAN_MOTION_DDOT": 0}, "tle": {"line1": "1 28890U 05043A   25359.76054758  .00000764  00000+0  15705-3 0  9992", "line2": "2 28890  98.2665 127.2992 0015846 103.0510 257.2461 14.63378928 75281"}}, "geometry": {"type": "Point", "coordinates": [-84.35676070188177, -74.59346519665837]}}, {"type": "Feature", "properties": {"norad_id": 33320, "name": "HUANJING 1A (HJ-1A)", "group": "dmc", "lat": 24.531061728013853, "lon": 171.2122982965961, "alt_km": 630.7007447912674, "timestamp": "2025-12-25T22:42:16.663184+00:00", "meta": {"OBJECT_NAME": "HUANJING 1A (HJ-1A)", "OBJECT_ID": "2008-041A", "EPOCH": "2025-12-25T18:46:12.075744", "MEAN_MOTION": 14.83432278, "ECCENTRICITY": 0.0019138, "INCLINATION": 97.6551, "RA_OF_ASC_NODE": 347.536, "ARG_OF_PERICENTER": 352.6693, "MEAN_ANOMALY": 7.4239, "EPHEMERIS_TYPE": 0, "CLASSIFICATION_TYPE": "U", "NORAD_CAT_ID": 33320, "ELEMENT_SET_NO": 999, "REV_AT_EPOCH": 93269, "BSTAR": 0.0001658, "MEAN_MOTION_DOT": 1.314e-05, "MEAN_MOTION_DDOT": 0}, "tle": {"line1": "1 33320U 08041A   25359.78208421  .00001314  00000+0  16580-3 0  9991", "line2": "2 33320  97.6551 347.5360 0019138 352.6693   7.4239 14.83432278932696"}}, "geometry": {"type": "Point", "coordinates": [171.2122982965961, 24.531061728013853]}}, {"type": "Feature", "properties": {"norad_id": 33321, "name": "HUANJING 1B (HJ-1B)", "group": "dmc", "lat": -11.533613509993707, "lon": -7.074782982238012, "alt_km": 606.1627199394561, "timestamp": "2025-12-25T22:42:16.663199+00:00", "meta": {"OBJECT_NAME": "HUANJING 1B (HJ-1B)", "OBJECT_ID": "2008-041B", "EPOCH": "2025-12-25T17:53:53.588832", "MEAN_MOTION": 14.828555, "ECCENTRICITY": 0.0037683, "INCLINATION": 97.6409, "RA_OF_ASC_NODE": 351.164, "ARG_OF_PERICENTER": 34.5635, "MEAN_ANOMALY": 325.8018, "EPHEMERIS_TYPE": 0, "CLASSIFICATION_TYPE": "U", "NORAD_CAT_ID": 33321, "ELEMENT_SET_NO": 999, "REV_AT_EPOCH": 93270, "BSTAR": 0.00020844, "MEAN_MOTION_DOT": 1.657e-05, "MEAN_MOTION_DDOT": 0}, "tle": {"line1": "1 33321U 08041B   25359.74575913  .00001657  00000+0  20844-3 0  9999", "line2": "2 33321  97.6409 351.1640 0037683  34.5635 325.8018 14.82855500932708"}}, "geometry": {"type": "Point", "coordinates": [-7.074782982238012, -11.533613509993707]}}, {"type": "Feature", "properties": {"norad_id": 33446, "name": "YAOGAN-4", "group": "dmc", "lat": -72.38350184206702, "lon": 83.91492564438212, "alt_km": 619.6555083276289, "timestamp": "2025-12-25T22:42:16.663211+00:00", "meta": {"OBJECT_NAME": "YAOGAN-4", "OBJECT_ID": "2008-061A", "EPOCH": "2025-12-25T18:19:17.173344", "MEAN_MOTION": 14.8271976, "ECCENTRICITY": 0.0012966, "INCLINATION": 97.9198, "RA_OF_ASC_NODE": 289.7359, "ARG_OF_PERICENTER": 277.0684, "MEAN_ANOMALY": 82.9055, "EPHEMERIS_TYPE": 0, "CLASSIFICATION_TYPE": "U", "NORAD_CAT_ID": 33446, "ELEMENT_SET_NO": 999, "REV_AT_EPOCH": 91996, "BSTAR": 0.00018511, "MEAN_MOTION_DOT": 1.442e-05, "MEAN_MOTION_DDOT": 0}, "tle": {"line1": "1 33446U 08061A   25359.76339321  .00001442  00000+0  18511-3 0  9992", "line2": "2 33446  97.9198 289.7359 0012966 277.0684  82.9055 14.82719760919964"}}, "geometry": {"type": "Point", "coordinates": [83.91492564438212, -72.38350184206702]}}, {"type": "Feature", "properties": {"norad_id": 35681, "name": "DEIMOS-1", "group": "dmc", "lat": 16.134951734241124, "lon": 157.68742240735187, "alt_km": 644.6834910979696, "timestamp": "2025-12-25T22:42:16.663223+00:00", "meta": {"OBJECT_NAME": "DEIMOS-1", "OBJECT_ID": "2009-041A", "EPOCH": "2025-12-25T17:44:47.772384", "MEAN_MOTION": 14.74970704, "ECCENTRICITY": 0.0002446, "INCLINATION": 97.7157, "RA_OF_ASC_NODE": 159.7383, "ARG_OF_PERICENTER": 59.9451, "MEAN_ANOMALY": 300.2001, "EPHEMERIS_TYPE": 0, "CLASSIFICATION_TYPE": "U", "NORAD_CAT_ID": 35681, "ELEMENT_SET_NO": 999, "REV_AT_EPOCH": 88131, "BSTAR": 8.1888e-05, "MEAN_MOTION_DOT": 5.03e-06, "MEAN_MOTION_DDOT": 0}, "tle": {"line1": "1 35681U 09041A   25359.73944181  .00000503  00000+0  81888-4 0  9992", "line2": "2 35681  97.7157 159.7383 0002446  59.9451 300.2001 14.74970704881316"}}, "geometry": {"type": "Point", "coordinates": [157.68742240735187, 16.134951734241124]}}, {"type": "Feature", "properties": {"norad_id": 35683, "name": "UK-DMC 2", "group": "dmc", "lat": 62.48149939228727, "lon": 119.10597311172508, "alt_km": 636.0231123290641, "timestamp": "2025-12-25T22:42:16.663234+00:00", "meta": {"OBJECT_NAME": "UK-DMC 2", "OBJECT_ID": "2009-041C", "EPOCH": "2025-12-25T17:32:08.054592", "MEAN_MOTION": 14.75648389, "ECCENTRICITY": 0.0001582, "INCLINATION": 97.8573, "RA_OF_ASC_NODE": 134.2677, "ARG_OF_PERICENTER": 91.4923, "MEAN_ANOMALY": 268.6468, "EPHEMERIS_TYPE": 0, "CLASSIFICATION_TYPE": "U", "NORAD_CAT_ID": 35683, "ELEMENT_SET_NO": 999, "REV_AT_EPOCH": 88098, "BSTAR": 0.00016689, "MEAN_MOTION_DOT": 1.09e-05, "MEAN_MOTION_DDOT": 0}, "tle": {"line1": "1 35683U 09041C   25359.73064878  .00001090  00000+0  16689-3 0  9998", "line2": "2 35683  97.8573 134.2677 0001582  91.4923 268.6468 14.75648389880988"}}, "geometry": {"type": "Point", "coordinates": [119.10597311172508, 62.48149939228727]}}, {"type": "Feature", "properties": {"norad_id": 40715, "name": "DMC3-FM1", "group": "dmc", "lat": -38.02736558944293, "lon": 40.60880424252361, "alt_km": 616.6707535767464, "timestamp": "2025-12-25T22:42:16.663258+00:00", "meta": {"OBJECT_NAME": "DMC3-FM1", "OBJECT_ID": "2015-032A", "EPOCH": "2025-12-25T18:29:27.719808", "MEAN_MOTION": 14.85460526, "ECCENTRICITY": 0.000408, "INCLINATION": 97.6679, "RA_OF_ASC_NODE": 226.4878, "ARG_OF_PERICENTER": 266.5713, "MEAN_ANOMALY": 93.5036, "EPHEMERIS_TYPE": 0, "CLASSIFICATION_TYPE": "U", "NORAD_CAT_ID": 40715, "ELEMENT_SET_NO": 999, "REV_AT_EPOCH": 56416, "BSTAR": 6.2585e-05, "MEAN_MOTION_DOT": 4.88e-06, "MEAN_MOTION_DDOT": 0}, "tle": {"line1": "1 40715U 15032A   25359.77045972  .00000488  00000+0  62585-4 0  9992", "line2": "2 40715  97.6679 226.4878 0004080 266.5713  93.5036 14.85460526564161"}}, "geometry": {"type": "Point", "coordinates": [40.60880424252361, -38.02736558944293]}}, {"type": "Feature", "properties": {"norad_id": 40716, "name": "DMC3-FM2", "group": "dmc", "lat": 78.7608203815244, "lon": 90.83608383529129, "alt_km": 607.9935340142729, "timestamp": "2025-12-25T22:42:16.663271+00:00", "meta": {"OBJECT_NAME": "DMC3-FM2", "OBJECT_ID": "2015-032B", "EPOCH": "2025-12-25T19:01:49.984032", "MEAN_MOTION": 14.85463925, "ECCENTRICITY": 0.0004591, "INCLINATION": 97.6736, "RA_OF_ASC_NODE": 227.9626, "ARG_OF_PERICENTER": 272.832, "MEAN_ANOMALY": 87.237, "EPHEMERIS_TYPE": 0, "CLASSIFICATION_TYPE": "U", "NORAD_CAT_ID": 40716, "ELEMENT_SET_NO": 999, "REV_AT_EPOCH": 56416, "BSTAR": 0.00013782, "MEAN_MOTION_DOT": 1.137e-05, "MEAN_MOTION_DDOT": 0}, "tle": {"line1": "1 40716U 15032B   25359.79293963  .00001137  00000+0  13782-3 0  9996", "line2": "2 40716  97.6736 227.9626 0004591 272.8320  87.2370 14.85463925564161"}}, "geometry": {"type": "Point", "coordinates": [90.83608383529129, 78.7608203815244]}}, {"type": "Feature", "properties": {"norad_id": 40717, "name": "DMC3-FM3", "group": "dmc", "lat": -17.86978218052296, "lon": -127.75459819372487, "alt_km": 616.2060323077385, "timestamp": "2025-12-25T22:42:16.663281+00:00", "meta": {"OBJECT_NAME": "DMC3-FM3", "OBJECT_ID": "2015-032C", "EPOCH": "2025-12-25T17:56:08.263968", "MEAN_MOTION": 14.85450944, "ECCENTRICITY": 0.000386, "INCLINATION": 97.6792, "RA_OF_ASC_NODE": 229.5605, "ARG_OF_PERICENTER": 274.4284, "MEAN_ANOMALY": 85.6491, "EPHEMERIS_TYPE": 0, "CLASSIFICATION_TYPE": "U", "NORAD_CAT_ID": 40717, "ELEMENT_SET_NO": 999, "REV_AT_EPOCH": 56416, "BSTAR": 0.00015637, "MEAN_MOTION_DOT": 1.297e-05, "MEAN_MOTION_DDOT": 0}, "tle": {"line1": "1 40717U 15032C   25359.74731787  .00001297  00000+0  15637-3 0  9991", "line2": "2 40717  97.6792 229.5605 0003860 274.4284  85.6491 14.85450944564167"}}, "geometry": {"type": "Point", "coordinates": [-127.75459819372487, -17.86978218052296]}}]}